{
  "type": "FeatureCollection",
  "features": [
    {
      "type": "Feature",
      "properties": {
        "norad_id": 66429,
        "name": "STARLINK-35533",
        "group": "last-30-days",
        "lat": -31.958074675756,
        "lon": 10.44789562817368,
        "alt_km": 445.4635018251365,
        "timestamp": "2025-12-11T22:43:46.022292+00:00",
        "meta_object_name": "STARLINK-35533",
        "meta_object_id": "2025-259H",
        "meta_epoch": "2025-12-11T12:03:31.932288",
        "meta_mean_motion": 15.40717797,
        "meta_eccentricity": 0.00020236,
        "meta_inclination": 43.0055,
        "meta_ra_of_asc_node": 55.0272,
        "meta_arg_of_pericenter": 268.2744,
        "meta_mean_anomaly": 91.7881,
        "meta_ephemeris_type": 0,
        "meta_classification_type": "U",
        "meta_norad_cat_id": 66429,
        "meta_element_set_no": 999,
        "meta_rev_at_epoch": 597,
        "meta_bstar": 0.0024604839,
        "meta_mean_motion_dot": 0.00103951,
        "meta_mean_motion_ddot": 0,
        "tle_line1": "1 66429U 25259H   25345.50245292  .00103951  00000+0  24605-2 0  9995",
        "tle_line2": "2 66429  43.0055  55.0272 0002023 268.2744  91.7881 15.40717797  5970"
      },
      "geometry": {
        "type": "Point",
        "coordinates": [
          10.44789562817368,
          -31.958074675756
        ]
      }
    },
    {
      "type": "Feature",
      "properties": {
        "norad_id": 66430,
        "name": "STARLINK-35470",
        "group": "last-30-days",
        "lat": -25.05827485016968,
        "lon": 22.330082211083486,
        "alt_km": 444.5942497207034,
        "timestamp": "2025-12-11T22:43:46.022306+00:00",
        "meta_object_name": "STARLINK-35470",
        "meta_object_id": "2025-259J",
        "meta_epoch": "2025-12-11T13:33:39.405888",
        "meta_mean_motion": 15.40809606,
        "meta_eccentricity": 0.00024101,
        "meta_inclination": 43.0063,
        "meta_ra_of_asc_node": 54.64,
        "meta_arg_of_pericenter": 283.3726,
        "meta_mean_anomaly": 76.6862,
        "meta_ephemeris_type": 0,
        "meta_classification_type": "U",
        "meta_norad_cat_id": 66430,
        "meta_element_set_no": 999,
        "meta_rev_at_epoch": 598,
        "meta_bstar": 0.001661001,
        "meta_mean_motion_dot": 0.00069977,
        "meta_mean_motion_ddot": 0,
        "tle_line1": "1 66430U 25259J   25345.56503942  .00069977  00000+0  16610-2 0  9998",
        "tle_line2": "2 66430  43.0063  54.6400 0002410 283.3726  76.6862 15.40809606  5980"
      },
      "geometry": {
        "type": "Point",
        "coordinates": [
          22.330082211083486,
          -25.05827485016968
        ]
      }
    },
    {
      "type": "Feature",
      "properties": {
        "norad_id": 66431,
        "name": "STARLINK-35439",
        "group": "last-30-days",
        "lat": -17.4711473361243,
        "lon": 32.66362505589516,
        "alt_km": 445.25916287049495,
        "timestamp": "2025-12-11T22:43:46.022317+00:00",
        "meta_object_name": "STARLINK-35439",
        "meta_object_id": "2025-259K",
        "meta_epoch": "2025-12-11T13:30:26.102304",
        "meta_mean_motion": 15.40703994,
        "meta_eccentricity": 9.761e-05,
        "meta_inclination": 43.0021,
        "meta_ra_of_asc_node": 54.6176,
        "meta_arg_of_pericenter": 273.9156,
        "meta_mean_anomaly": 86.1589,
        "meta_ephemeris_type": 0,
        "meta_classification_type": "U",
        "meta_norad_cat_id": 66431,
        "meta_element_set_no": 999,
        "meta_rev_at_epoch": 598,
        "meta_bstar": 0.0015220308,
        "meta_mean_motion_dot": 0.00063817,
        "meta_mean_motion_ddot": 0,
        "tle_line1": "1 66431U 25259K   25345.56280211  .00063817  00000+0  15220-2 0  9993",
        "tle_line2": "2 66431  43.0021  54.6176 0000976 273.9156  86.1589 15.40703994  5987"
      },
      "geometry": {
        "type": "Point",
        "coordinates": [
          32.66362505589516,
          -17.4711473361243
        ]
      }
    },
    {
      "type": "Feature",
      "properties": {
        "norad_id": 66432,
        "name": "STARLINK-35446",
        "group": "last-30-days",
        "lat": -9.251923707017015,
        "lon": 42.305263630497755,
        "alt_km": 444.85078713026724,
        "timestamp": "2025-12-11T22:43:46.022333+00:00",
        "meta_object_name": "STARLINK-35446",
        "meta_object_id": "2025-259L",
        "meta_epoch": "2025-12-11T13:27:12.361536",
        "meta_mean_motion": 15.40728148,
        "meta_eccentricity": 0.00015076,
        "meta_inclination": 42.9989,
        "meta_ra_of_asc_node": 54.6011,
        "meta_arg_of_pericenter": 245.2135,
        "meta_mean_anomaly": 114.8565,
        "meta_ephemeris_type": 0,
        "meta_classification_type": "U",
        "meta_norad_cat_id": 66432,
        "meta_element_set_no": 999,
        "meta_rev_at_epoch": 598,
        "meta_bstar": 0.0015945878,
        "meta_mean_motion_dot": 0.00066956,
        "meta_mean_motion_ddot": 0,
        "tle_line1": "1 66432U 25259L   25345.56055974  .00066956  00000+0  15946-2 0  9992",
        "tle_line2": "2 66432  42.9989  54.6011 0001507 245.2135 114.8565 15.40728148  5988"
      },
      "geometry": {
        "type": "Point",
        "coordinates": [
          42.305263630497755,
          -9.251923707017015
        ]
      }
    },
    {
      "type": "Feature",
      "properties": {
        "norad_id": 66433,
        "name": "STARLINK-35457",
        "group": "last-30-days",
        "lat": -0.8869078749445953,
        "lon": 51.39583661028123,
        "alt_km": 443.90954362542107,
        "timestamp": "2025-12-11T22:43:46.022344+00:00",
        "meta_object_name": "STARLINK-35457",
        "meta_object_id": "2025-259M",
        "meta_epoch": "2025-12-11T14:00:01.999872",
        "meta_mean_motion": 15.40599856,
        "meta_eccentricity": 0.00012327,
        "meta_inclination": 43,
        "meta_ra_of_asc_node": 54.4439,
        "meta_arg_of_pericenter": 273.0939,
        "meta_mean_anomaly": 226.072,
        "meta_ephemeris_type": 0,
        "meta_classification_type": "U",
        "meta_norad_cat_id": 66433,
        "meta_element_set_no": 999,
        "meta_rev_at_epoch": 609,
        "meta_bstar": 0.0024169137,
        "meta_mean_motion_dot": 0.00101673,
        "meta_mean_motion_ddot": 0,
        "tle_line1": "1 66433U 25259M   25345.58335648  .00101673  00000+0  24169-2 0  9997",
        "tle_line2": "2 66433  43.0000  54.4439 0001232 273.0939 226.0720 15.40599856  6097"
      },
      "geometry": {
        "type": "Point",
        "coordinates": [
          51.39583661028123,
          -0.8869078749445953
        ]
      }
    },
    {
      "type": "Feature",
      "properties": {
        "norad_id": 66434,
        "name": "STARLINK-35389",
        "group": "last-30-days",
        "lat": 7.569004086442358,
        "lon": 60.514440483238985,
        "alt_km": 442.8113470886901,
        "timestamp": "2025-12-11T22:43:46.022355+00:00",
        "meta_object_name": "STARLINK-35389",
        "meta_object_id": "2025-259N",
        "meta_epoch": "2025-12-11T14:00:01.999872",
        "meta_mean_motion": 15.40618008,
        "meta_eccentricity": 0.00014991,
        "meta_inclination": 43,
        "meta_ra_of_asc_node": 54.4126,
        "meta_arg_of_pericenter": 280.488,
        "meta_mean_anomaly": 231.0986,
        "meta_ephemeris_type": 0,
        "meta_classification_type": "U",
        "meta_norad_cat_id": 66434,
        "meta_element_set_no": 999,
        "meta_rev_at_epoch": 609,
        "meta_bstar": 0.0019441154,
        "meta_mean_motion_dot": 0.00081557,
        "meta_mean_motion_ddot": 0,
        "tle_line1": "1 66434U 25259N   25345.58335648  .00081557  00000+0  19441-2 0  9993",
        "tle_line2": "2 66434  43.0000  54.4126 0001499 280.4880 231.0986 15.40618008  6094"
      },
      "geometry": {
        "type": "Point",
        "coordinates": [
          60.514440483238985,
          7.569004086442358
        ]
      }
    },
    {
      "type": "Feature",
      "properties": {
        "norad_id": 66435,
        "name": "STARLINK-35502",
        "group": "last-30-days",
        "lat": 15.82987446370028,
        "lon": 70.00165364293123,
        "alt_km": 441.5927019685996,
        "timestamp": "2025-12-11T22:43:46.022366+00:00",
        "meta_object_name": "STARLINK-35502",
        "meta_object_id": "2025-259P",
        "meta_epoch": "2025-12-11T14:00:01.999872",
        "meta_mean_motion": 15.40609262,
        "meta_eccentricity": 0.00010693,
        "meta_inclination": 43.0001,
        "meta_ra_of_asc_node": 54.3837,
        "meta_arg_of_pericenter": 289.9536,
        "meta_mean_anomaly": 234.077,
        "meta_ephemeris_type": 0,
        "meta_classification_type": "U",
        "meta_norad_cat_id": 66435,
        "meta_element_set_no": 999,
        "meta_rev_at_epoch": 609,
        "meta_bstar": 0.0025258355,
        "meta_mean_motion_dot": 0.00106368,
        "meta_mean_motion_ddot": 0,
        "tle_line1": "1 66435U 25259P   25345.58335648  .00106368  00000+0  25258-2 0  9995",
        "tle_line2": "2 66435  43.0001  54.3837 0001069 289.9536 234.0770 15.40609262  6095"
      },
      "geometry": {
        "type": "Point",
        "coordinates": [
          70.00165364293123,
          15.82987446370028
        ]
      }
    }
  ]
}